{"type": "FeatureCollection", "features": [ {"type": "Feature", "properties": {"norad_id": 66578, "name": "STARLINK-35743", "group": "last-30-days", "lat": 36.265708360282765, "lon": 163.31753666090924, "alt_km": 408.361029496803, "timestamp": "2025-12-14T09:36:21.778822+00:00", "meta": {"OBJECT_NAME": "STARLINK-35743", "OBJECT_ID": "2025-268X", "EPOCH": "2025-12-13T07:04:15.971520", "MEAN_MOTION": 15.5064567, "ECCENTRICITY": 8.455e-05, "INCLINATION": 42.9995, "RA_OF_ASC_NODE": 117.8528, "ARG_OF_PERICENTER": 255.7967, "MEAN_ANOMALY": 104.2799, "EPHEMERIS_TYPE": 0, "CLASSIFICATION_TYPE": "U", "NORAD_CAT_ID": 66578, "ELEMENT_SET_NO": 999, "REV_AT_EPOCH": 471, "BSTAR": 0.0031012837, "MEAN_MOTION_DOT": 0.00186438, "MEAN_MOTION_DDOT": 0}, "tle": {"line1": "1 66578U 25268X   25347.29462930  .00186438  00000+0  31013-2 0  9990", "line2": "2 66578  42.9995 117.8528 0000845 255.7967 104.2799 15.50645670  4715"}}, "geometry": {"type": "Point", "coordinates": [163.31753666090924, 36.265708360282765]}}, {"type": "Feature", "properties": {"norad_id": 66579, "name": "STARLINK-35868", "group": "last-30-days", "lat": 36.95700505115021, "lon": 165.2213331451793, "alt_km": 409.32832927812524, "timestamp": "2025-12-14T09:36:21.778832+00:00", "meta": {"OBJECT_NAME": "STARLINK-35868", "OBJECT_ID": "2025-268Y", "EPOCH": "2025-12-13T08:36:31.494240", "MEAN_MOTION": 15.50624662, "ECCENTRICITY": 0.0002169, "INCLINATION": 42.9994, "RA_OF_ASC_NODE": 117.4724, "ARG_OF_PERICENTER": 255.5177, "MEAN_ANOMALY": 104.5442, "EPHEMERIS_TYPE": 0, "CLASSIFICATION_TYPE": "U", "NORAD_CAT_ID": 66579, "ELEMENT_SET_NO": 999, "REV_AT_EPOCH": 472, "BSTAR": 0.0028390677, "MEAN_MOTION_DOT": 0.00170163, "MEAN_MOTION_DDOT": 0}, "tle": {"line1": "1 66579U 25268Y   25347.35869785  .00170163  00000+0  28391-2 0  9990", "line2": "2 66579  42.9994 117.4724 0002169 255.5177 104.5442 15.50624662  4728"}}, "geometry": {"type": "Point", "coordinates": [165.2213331451793, 36.95700505115021]}}, {"type": "Feature", "properties": {"norad_id": 66580, "name": "STARLINK-35872", "group": "last-30-days", "lat": 37.714240932622076, "lon": 167.4562044640474, "alt_km": 408.759484536964, "timestamp": "2025-12-14T09:36:21.778842+00:00", "meta": {"OBJECT_NAME": "STARLINK-35872", "OBJECT_ID": "2025-268Z", "EPOCH": "2025-12-13T08:36:01.969632", "MEAN_MOTION": 15.50629346, "ECCENTRICITY": 0.00015397, "INCLINATION": 42.9998, "RA_OF_ASC_NODE": 117.4711, "ARG_OF_PERICENTER": 263.313, "MEAN_ANOMALY": 96.7555, "EPHEMERIS_TYPE": 0, "CLASSIFICATION_TYPE": "U", "NORAD_CAT_ID": 66580, "ELEMENT_SET_NO": 999, "REV_AT_EPOCH": 472, "BSTAR": 0.0028304578, "MEAN_MOTION_DOT": 0.0016966, "MEAN_MOTION_DDOT": 0}, "tle": {"line1": "1 66580U 25268Z   25347.35835613  .00169660  00000+0  28305-2 0  9990", "line2": "2 66580  42.9998 117.4711 0001539 263.3130  96.7555 15.50629346  4727"}}, "geometry": {"type": "Point", "coordinates": [167.4562044640474, 37.714240932622076]}}, {"type": "Feature", "properties": {"norad_id": 66581, "name": "STARLINK-35744", "group": "last-30-days", "lat": 38.345424045249, "lon": 169.45757479852486, "alt_km": 409.0255774819998, "timestamp": "2025-12-14T09:36:21.778852+00:00", "meta": {"OBJECT_NAME": "STARLINK-35744", "OBJECT_ID": "2025-268AA", "EPOCH": "2025-12-13T08:35:32.306784", "MEAN_MOTION": 15.50615828, "ECCENTRICITY": 0.00017901, "INCLINATION": 43.0005, "RA_OF_ASC_NODE": 117.4668, "ARG_OF_PERICENTER": 274.3514, "MEAN_ANOMALY": 85.7141, "EPHEMERIS_TYPE": 0, "CLASSIFICATION_TYPE": "U", "NORAD_CAT_ID": 66581, "ELEMENT_SET_NO": 999, "REV_AT_EPOCH": 472, "BSTAR": 0.0021025305, "MEAN_MOTION_DOT": 0.0012516, "MEAN_MOTION_DDOT": 0}, "tle": {"line1": "1 66581U 25268AA  25347.35801281  .00125160  00000+0  21025-2 0  9994", "line2": "2 66581  43.0005 117.4668 0001790 274.3514  85.7141 15.50615828  4726"}}, "geometry": {"type": "Point", "coordinates": [169.45757479852486, 38.345424045249]}}, {"type": "Feature", "properties": {"norad_id": 66582, "name": "STARLINK-35746", "group": "last-30-days", "lat": 38.8938676980801, "lon": 171.3302038326583, "alt_km": 410.0352359945082, "timestamp": "2025-12-14T09:36:21.778862+00:00", "meta": {"OBJECT_NAME": "STARLINK-35746", "OBJECT_ID": "2025-268AB", "EPOCH": "2025-12-13T16:18:49.811616", "MEAN_MOTION": 15.50621163, "ECCENTRICITY": 0.00026374, "INCLINATION": 42.9999, "RA_OF_ASC_NODE": 115.5807, "ARG_OF_PERICENTER": 259.4365, "MEAN_ANOMALY": 100.6198, "EPHEMERIS_TYPE": 0, "CLASSIFICATION_TYPE": "U", "NORAD_CAT_ID": 66582, "ELEMENT_SET_NO": 999, "REV_AT_EPOCH": 477, "BSTAR": 0.0015195994, "MEAN_MOTION_DOT": 0.00089978, "MEAN_MOTION_DDOT": 0}, "tle": {"line1": "1 66582U 25268AB  25347.67974319  .00089978  00000+0  15196-2 0  9991", "line2": "2 66582  42.9999 115.5807 0002637 259.4365 100.6198 15.50621163  4773"}}, "geometry": {"type": "Point", "coordinates": [171.3302038326583, 38.8938676980801]}}, {"type": "Feature", "properties": {"norad_id": 66583, "name": "STARLINK-35941", "group": "last-30-days", "lat": 39.844114312938224, "lon": 174.93059016275384, "alt_km": 407.802617170988, "timestamp": "2025-12-14T09:36:21.778873+00:00", "meta": {"OBJECT_NAME": "STARLINK-35941", "OBJECT_ID": "2025-268AC", "EPOCH": "2025-12-13T02:23:31.434432", "MEAN_MOTION": 15.50656869, "ECCENTRICITY": 0.0001234, "INCLINATION": 43, "RA_OF_ASC_NODE": 118.9697, "ARG_OF_PERICENTER": 292.7477, "MEAN_ANOMALY": 67.3252, "EPHEMERIS_TYPE": 0, "CLASSIFICATION_TYPE": "U", "NORAD_CAT_ID": 66583, "ELEMENT_SET_NO": 999, "REV_AT_EPOCH": 468, "BSTAR": 0.0025889773, "MEAN_MOTION_DOT": 0.00155015, "MEAN_MOTION_DDOT": 0}, "tle": {"line1": "1 66583U 25268AC  25347.09966938  .00155015  00000+0  25890-2 0  9994", "line2": "2 66583  43.0000 118.9697 0001234 292.7477  67.3252 15.50656869  4680"}}, "geometry": {"type": "Point", "coordinates": [174.93059016275384, 39.844114312938224]}}, {"type": "Feature", "properties": {"norad_id": 66584, "name": "STARLINK-35939", "group": "last-30-days", "lat": 40.35713764338838, "lon": 177.12688601146695, "alt_km": 408.25344464715727, "timestamp": "2025-12-14T09:36:21.778899+00:00", "meta": {"OBJECT_NAME": "STARLINK-35939", "OBJECT_ID": "2025-268AD", "EPOCH": "2025-12-13T02:23:01.981536", "MEAN_MOTION": 15.50649717, "ECCENTRICITY": 0.0001615, "INCLINATION": 42.9995, "RA_OF_ASC_NODE": 118.9657, "ARG_OF_PERICENTER": 276.9481, "MEAN_ANOMALY": 83.1195, "EPHEMERIS_TYPE": 0, "CLASSIFICATION_TYPE": "U", "NORAD_CAT_ID": 66584, "ELEMENT_SET_NO": 999, "REV_AT_EPOCH": 468, "BSTAR": 0.0022907746, "MEAN_MOTION_DOT": 0.00136765, "MEAN_MOTION_DDOT": 0}, "tle": {"line1": "1 66584U 25268AD  25347.09932849  .00136765  00000+0  22908-2 0  9997", "line2": "2 66584  42.9995 118.9657 0001615 276.9481  83.1195 15.50649717  4686"}}, "geometry": {"type": "Point", "coordinates": [177.12688601146695, 40.35713764338838]}}, {"type": "Feature", "properties": {"norad_id": 66585, "name": "STARLINK-35963", "group": "last-30-days", "lat": 40.6530104197635, "lon": 178.49885784908392, "alt_km": 410.2318907514709, "timestamp": "2025-12-14T09:36:21.778910+00:00", "meta": {"OBJECT_NAME": "STARLINK-35963", "OBJECT_ID": "2025-268AE", "EPOCH": "2025-12-13T16:17:20.627808", "MEAN_MOTION": 15.50626017, "ECCENTRICITY": 0.00033383, "INCLINATION": 43.0001, "RA_OF_ASC_NODE": 115.5733, "ARG_OF_PERICENTER": 259.3032, "MEAN_ANOMALY": 100.7453, "EPHEMERIS_TYPE": 0, "CLASSIFICATION_TYPE": "U", "NORAD_CAT_ID": 66585, "ELEMENT_SET_NO": 999, "REV_AT_EPOCH": 477, "BSTAR": 0.0016186739, "MEAN_MOTION_DOT": 0.00095963, "MEAN_MOTION_DDOT": 0}, "tle": {"line1": "1 66585U 25268AE  25347.67871097  .00095963  00000+0  16187-2 0  9995", "line2": "2 66585  43.0001 115.5733 0003338 259.3032 100.7453 15.50626017  4777"}}, "geometry": {"type": "Point", "coordinates": [178.49885784908392, 40.6530104197635]}}, {"type": "Feature", "properties": {"norad_id": 66586, "name": "TJS-21", "group": "last-30-days", "lat": 62.034075014083854, "lon": -126.12846755842101, "alt_km": 37291.124273290356, "timestamp": "2025-12-14T09:36:21.778925+00:00", "meta": {"OBJECT_NAME": "TJS-21", "OBJECT_ID": "2025-269A", "EPOCH": "2025-12-10T17:31:22.184832", "MEAN_MOTION": 2.00567425, "ECCENTRICITY": 0.6805766, "INCLINATION": 63.269, "RA_OF_ASC_NODE": 162.5612, "ARG_OF_PERICENTER": 269.7806, "MEAN_ANOMALY": 18.6565, "EPHEMERIS_TYPE": 0, "CLASSIFICATION_TYPE": "U", "NORAD_CAT_ID": 66586, "ELEMENT_SET_NO": 999, "REV_AT_EPOCH": 39, "BSTAR": -0.044965385, "MEAN_MOTION_DOT": 1.083e-05, "MEAN_MOTION_DDOT": 0}, "tle": {"line1": "1 66586U 25269A   25344.73011788  .00001083  00000+0 -44965-1 0  9999", "line2": "2 66586  63.2690 162.5612 6805766 269.7806  18.6565  2.00567425   392"}}, "geometry": {"type": "Point", "coordinates": [-126.12846755842101, 62.034075014083854]}}, {"type": "Feature", "properties": {"norad_id": 66587, "name": "CZ-3B R/B", "group": "last-30-days", "lat": 30.528558900844807, "lon": -162.59104342711058, "alt_km": 38229.053736335314, "timestamp": "2025-12-14T09:36:21.778942+00:00", "meta": {"OBJECT_NAME": "CZ-3B R/B", "OBJECT_ID": "2025-269B", "EPOCH": "2025-12-12T18:47:24.789120", "MEAN_MOTION": 2.03336189, "ECCENTRICITY": 0.7518951, "INCLINATION": 51.347, "RA_OF_ASC_NODE": 169.6347, "ARG_OF_PERICENTER": 228.7177, "MEAN_ANOMALY": 37.1847, "EPHEMERIS_TYPE": 0, "CLASSIFICATION_TYPE": "U", "NORAD_CAT_ID": 66587, "ELEMENT_SET_NO": 999, "REV_AT_EPOCH": 45, "BSTAR": 0.00096662605, "MEAN_MOTION_DOT": 0.00067576, "MEAN_MOTION_DDOT": 1.09445e-06}, "tle": {"line1": "1 66587U 25269B   25346.78292580  .00067576  10944-5  96663-3 0  9994", "line2": "2 66587  51.3470 169.6347 7518951 228.7177  37.1847  2.03336189   454"}}, "geometry": {"type": "Point", "coordinates": [-162.59104342711058, 30.528558900844807]}}]}